{"type": "FeatureCollection", "features": [ {"type": "Feature", "properties": {"norad_id": 31026, "name": "FENGYUN 1C DEB", "group": "fengyun-1c-debris", "lat": 45.588546360984274, "lon": -89.68836034382848, "alt_km": 1027.6007179172102, "timestamp": "2025-12-09T14:52:26.441971+00:00", "meta": {"OBJECT_NAME": "FENGYUN 1C DEB", "OBJECT_ID": "1999-025BDU", "EPOCH": "2025-12-09T02:34:09.728256", "MEAN_MOTION": 13.83396592, "ECCENTRICITY": 0.01341455, "INCLINATION": 98.7789, "RA_OF_ASC_NODE": 278.9084, "ARG_OF_PERICENTER": 192.3786, "MEAN_ANOMALY": 182.9359, "EPHEMERIS_TYPE": 0, "CLASSIFICATION_TYPE": "U", "NORAD_CAT_ID": 31026, "ELEMENT_SET_NO": 999, "REV_AT_EPOCH": 67976, "BSTAR": 0.00022773609, "MEAN_MOTION_DOT": 2.28e-06, "MEAN_MOTION_DDOT": 0}, "tle": {"line1": "1 31026U 99025BDU 25343.10705704  .00000228  00000+0  22774-3 0  9994", "line2": "2 31026  98.7789 278.9084 0134145 192.3786 182.9359 13.83396592679765"}}, "geometry": {"type": "Point", "coordinates": [-89.68836034382848, 45.588546360984274]}}, {"type": "Feature", "properties": {"norad_id": 31028, "name": "FENGYUN 1C DEB", "group": "fengyun-1c-debris", "lat": -6.53661008731869, "lon": -83.322095387119, "alt_km": 857.4171667495839, "timestamp": "2025-12-09T14:52:26.441982+00:00", "meta": {"OBJECT_NAME": "FENGYUN 1C DEB", "OBJECT_ID": "1999-025BDW", "EPOCH": "2025-11-26T01:54:24.970752", "MEAN_MOTION": 13.89048666, "ECCENTRICITY": 0.01654825, "INCLINATION": 98.7043, "RA_OF_ASC_NODE": 263.016, "ARG_OF_PERICENTER": 340.0889, "MEAN_ANOMALY": 19.3862, "EPHEMERIS_TYPE": 0, "CLASSIFICATION_TYPE": "U", "NORAD_CAT_ID": 31028, "ELEMENT_SET_NO": 999, "REV_AT_EPOCH": 61772, "BSTAR": 0.00043609826, "MEAN_MOTION_DOT": 5.49e-06, "MEAN_MOTION_DDOT": 0}, "tle": {"line1": "1 31028U 99025BDW 25330.07945568  .00000549  00000+0  43610-3 0  9990", "line2": "2 31028  98.7043 263.0160 0165482 340.0889  19.3862 13.89048666617726"}}, "geometry": {"type": "Point", "coordinates": [-83.322095387119, -6.53661008731869]}}, {"type": "Feature", "properties": {"norad_id": 31029, "name": "FENGYUN 1C DEB", "group": "fengyun-1c-debris", "lat": 53.09516236266924, "lon": 72.42925520191218, "alt_km": 724.9357337458378, "timestamp": "2025-12-09T14:52:26.441992+00:00", "meta": {"OBJECT_NAME": "FENGYUN 1C DEB", "OBJECT_ID": "1999-025BDX", "EPOCH": "2025-12-09T04:56:45.642912", "MEAN_MOTION": 14.34311074, "ECCENTRICITY": 0.00900939, "INCLINATION": 98.8589, "RA_OF_ASC_NODE": 240.0187, "ARG_OF_PERICENTER": 84.0888, "MEAN_ANOMALY": 66.3562, "EPHEMERIS_TYPE": 0, "CLASSIFICATION_TYPE": "U", "NORAD_CAT_ID": 31029, "ELEMENT_SET_NO": 999, "REV_AT_EPOCH": 97745, "BSTAR": 0.0004574291, "MEAN_MOTION_DOT": 1.299e-05, "MEAN_MOTION_DDOT": 0}, "tle": {"line1": "1 31029U 99025BDX 25343.20608383  .00001299  00000+0  45743-3 0  9993", "line2": "2 31029  98.8589 240.0187 0090093  84.0888  66.3562 14.34311074977451"}}, "geometry": {"type": "Point", "coordinates": [72.42925520191218, 53.09516236266924]}}, {"type": "Feature", "properties": {"norad_id": 31030, "name": "FENGYUN 1C DEB", "group": "fengyun-1c-debris", "lat": 64.46643337273524, "lon": 26.705688374677347, "alt_km": 788.7184714619098, "timestamp": "2025-12-09T14:52:26.442002+00:00", "meta": {"OBJECT_NAME": "FENGYUN 1C DEB", "OBJECT_ID": "1999-025BDY", "EPOCH": "2025-12-08T15:40:05.884032", "MEAN_MOTION": 14.23648706, "ECCENTRICITY": 0.0028052, "INCLINATION": 98.7668, "RA_OF_ASC_NODE": 44.589, "ARG_OF_PERICENTER": 95.8447, "MEAN_ANOMALY": 57.5385, "EPHEMERIS_TYPE": 0, "CLASSIFICATION_TYPE": "U", "NORAD_CAT_ID": 31030, "ELEMENT_SET_NO": 999, "REV_AT_EPOCH": 96646, "BSTAR": 0.0015375, "MEAN_MOTION_DOT": 3.477e-05, "MEAN_MOTION_DDOT": 0}, "tle": {"line1": "1 31030U 99025BDY 25342.65284588  .00003477  00000+0  15375-2 0  9997", "line2": "2 31030  98.7668  44.5890 0028052  95.8447  57.5385 14.23648706966462"}}, "geometry": {"type": "Point", "coordinates": [26.705688374677347, 64.46643337273524]}}, {"type": "Feature", "properties": {"norad_id": 31031, "name": "FENGYUN 1C DEB", "group": "fengyun-1c-debris", "lat": 77.57363475009906, "lon": 127.1120136566853, "alt_km": 817.2536522360515, "timestamp": "2025-12-09T14:52:26.442012+00:00", "meta": {"OBJECT_NAME": "FENGYUN 1C DEB", "OBJECT_ID": "1999-025BDZ", "EPOCH": "2025-12-06T17:15:45.296928", "MEAN_MOTION": 14.20967849, "ECCENTRICITY": 0.0027503, "INCLINATION": 99.0712, "RA_OF_ASC_NODE": 257.6633, "ARG_OF_PERICENTER": 204.2383, "MEAN_ANOMALY": 185.4692, "EPHEMERIS_TYPE": 0, "CLASSIFICATION_TYPE": "U", "NORAD_CAT_ID": 31031, "ELEMENT_SET_NO": 999, "REV_AT_EPOCH": 96769, "BSTAR": 0.00074154334, "MEAN_MOTION_DOT": 1.566e-05, "MEAN_MOTION_DDOT": 0}, "tle": {"line1": "1 31031U 99025BDZ 25340.71927427  .00001566  00000+0  74154-3 0  9997", "line2": "2 31031  99.0712 257.6633 0027503 204.2383 185.4692 14.20967849967691"}}, "geometry": {"type": "Point", "coordinates": [127.1120136566853, 77.57363475009906]}}, {"type": "Feature", "properties": {"norad_id": 31032, "name": "FENGYUN 1C DEB", "group": "fengyun-1c-debris", "lat": -29.34247902431729, "lon": -2.3074576436301446, "alt_km": 950.2434941646907, "timestamp": "2025-12-09T14:52:26.442023+00:00", "meta": {"OBJECT_NAME": "FENGYUN 1C DEB", "OBJECT_ID": "1999-025BEA", "EPOCH": "2025-12-08T23:53:18.112128", "MEAN_MOTION": 14.02175995, "ECCENTRICITY": 0.0138936, "INCLINATION": 99.4003, "RA_OF_ASC_NODE": 351.7054, "ARG_OF_PERICENTER": 206.1922, "MEAN_ANOMALY": 212.6619, "EPHEMERIS_TYPE": 0, "CLASSIFICATION_TYPE": "U", "NORAD_CAT_ID": 31032, "ELEMENT_SET_NO": 999, "REV_AT_EPOCH": 94929, "BSTAR": 0.0015183, "MEAN_MOTION_DOT": 2.481e-05, "MEAN_MOTION_DDOT": 0}, "tle": {"line1": "1 31032U 99025BEA 25342.99534852  .00002481  00000+0  15183-2 0  9999", "line2": "2 31032  99.4003 351.7054 0138936 206.1922 212.6619 14.02175995949296"}}, "geometry": {"type": "Point", "coordinates": [-2.3074576436301446, -29.34247902431729]}}, {"type": "Feature", "properties": {"norad_id": 31033, "name": "FENGYUN 1C DEB", "group": "fengyun-1c-debris", "lat": 77.79222787100001, "lon": -174.62479087797786, "alt_km": 689.3341543868364, "timestamp": "2025-12-09T14:52:26.442033+00:00", "meta": {"OBJECT_NAME": "FENGYUN 1C DEB", "OBJECT_ID": "1999-025BEB", "EPOCH": "2025-12-08T17:21:40.161600", "MEAN_MOTION": 14.27446167, "ECCENTRICITY": 0.01540192, "INCLINATION": 98.4379, "RA_OF_ASC_NODE": 321.1871, "ARG_OF_PERICENTER": 122.1947, "MEAN_ANOMALY": 53.6224, "EPHEMERIS_TYPE": 0, "CLASSIFICATION_TYPE": "U", "NORAD_CAT_ID": 31033, "ELEMENT_SET_NO": 999, "REV_AT_EPOCH": 97288, "BSTAR": 0.00032057907, "MEAN_MOTION_DOT": 8.5e-06, "MEAN_MOTION_DDOT": 0}, "tle": {"line1": "1 31033U 99025BEB 25342.72338150  .00000850  00000+0  32058-3 0  9993", "line2": "2 31033  98.4379 321.1871 0154019 122.1947  53.6224 14.27446167972889"}}, "geometry": {"type": "Point", "coordinates": [-174.62479087797786, 77.79222787100001]}}, {"type": "Feature", "properties": {"norad_id": 31036, "name": "FENGYUN 1C DEB", "group": "fengyun-1c-debris", "lat": 27.242081762195987, "lon": 85.26838068132245, "alt_km": 765.656314720577, "timestamp": "2025-12-09T14:52:26.442043+00:00", "meta": {"OBJECT_NAME": "FENGYUN 1C DEB", "OBJECT_ID": "1999-025BEE", "EPOCH": "2025-12-08T05:44:25.920096", "MEAN_MOTION": 14.49059493, "ECCENTRICITY": 0.01376047, "INCLINATION": 98.9154, "RA_OF_ASC_NODE": 88.4459, "ARG_OF_PERICENTER": 278.2122, "MEAN_ANOMALY": 110.3171, "EPHEMERIS_TYPE": 0, "CLASSIFICATION_TYPE": "U", "NORAD_CAT_ID": 31036, "ELEMENT_SET_NO": 999, "REV_AT_EPOCH": 57242, "BSTAR": 0.0004229533, "MEAN_MOTION_DOT": 1.753e-05, "MEAN_MOTION_DDOT": 0}, "tle": {"line1": "1 31036U 99025BEE 25342.23918889  .00001753  00000+0  42295-3 0  9992", "line2": "2 31036  98.9154  88.4459 0137604 278.2122 110.3171 14.49059493572426"}}, "geometry": {"type": "Point", "coordinates": [85.26838068132245, 27.242081762195987]}}, {"type": "Feature", "properties": {"norad_id": 31038, "name": "FENGYUN 1C DEB", "group": "fengyun-1c-debris", "lat": -40.72562396196074, "lon": -120.40948525706163, "alt_km": 688.5800554997895, "timestamp": "2025-12-09T14:52:26.442054+00:00", "meta": {"OBJECT_NAME": "FENGYUN 1C DEB", "OBJECT_ID": "1999-025BEG", "EPOCH": "2025-12-09T03:52:59.239200", "MEAN_MOTION": 14.45799053, "ECCENTRICITY": 0.00839459, "INCLINATION": 99.0123, "RA_OF_ASC_NODE": 66.9574, "ARG_OF_PERICENTER": 239.1707, "MEAN_ANOMALY": 120.1203, "EPHEMERIS_TYPE": 0, "CLASSIFICATION_TYPE": "U", "NORAD_CAT_ID": 31038, "ELEMENT_SET_NO": 999, "REV_AT_EPOCH": 98183, "BSTAR": 0.00083292343, "MEAN_MOTION_DOT": 3.034e-05, "MEAN_MOTION_DDOT": 0}, "tle": {"line1": "1 31038U 99025BEG 25343.16179675  .00003034  00000+0  83292-3 0  9995", "line2": "2 31038  99.0123  66.9574 0083945 239.1707 120.1203 14.45799053981831"}}, "geometry": {"type": "Point", "coordinates": [-120.40948525706163, -40.72562396196074]}}, {"type": "Feature", "properties": {"norad_id": 31040, "name": "FENGYUN 1C DEB", "group": "fengyun-1c-debris", "lat": -13.873430557961452, "lon": 151.3903047626156, "alt_km": 793.6034831939587, "timestamp": "2025-12-09T14:52:26.442064+00:00", "meta": {"OBJECT_NAME": "FENGYUN 1C DEB", "OBJECT_ID": "1999-025BEJ", "EPOCH": "2025-12-08T11:35:31.129152", "MEAN_MOTION": 14.17663888, "ECCENTRICITY": 0.00620491, "INCLINATION": 98.6576, "RA_OF_ASC_NODE": 332.4391, "ARG_OF_PERICENTER": 206.3958, "MEAN_ANOMALY": 309.3862, "EPHEMERIS_TYPE": 0, "CLASSIFICATION_TYPE": "U", "NORAD_CAT_ID": 31040, "ELEMENT_SET_NO": 999, "REV_AT_EPOCH": 96646, "BSTAR": 0.0005472271, "MEAN_MOTION_DOT": 1.092e-05, "MEAN_MOTION_DDOT": 0}, "tle": {"line1": "1 31040U 99025BEJ 25342.48299918  .00001092  00000+0  54723-3 0  9994", "line2": "2 31040  98.6576 332.4391 0062049 206.3958 309.3862 14.17663888966464"}}, "geometry": {"type": "Point", "coordinates": [151.3903047626156, -13.873430557961452]}}]}